{
  "norad_id": 46351,
  "name": "STARLINK-1646",
  "history": [
    {
      "epoch": "2026-03-28T17:48:00.308736",
      "apogee_km": 392.37540802520743,
      "perigee_km": 387.44190882295607,
      "latitude_deg": 43.41424383301878,
      "longitude_deg": -33.69965695985593,
      "semi_major_axis_km": 6768.045658424081,
      "eccentricity": 0.00036447,
      "inclination_deg": 53.0436,
      "raan_deg": 242.8138,
      "arg_perigee_deg": 241.8099,
      "mean_anomaly_deg": 118.2545,
      "mean_motion_rev_day": 15.59221599
    }
  ]
}