{"fetched_at":"2026-03-30T13:17:50Z","count":15418,"tles":[{"name":"STARLINK-1646","line1":"1 46351U 20062AC  26087.74167024  .00172524  00000+0  21189-2 0  9996","line2":"2 46351  53.0436 242.8138 0003644 241.8099 118.2545 15.59221599307879","category":"Starlink"}]}